ISS (ZARYA)             
1 25544U 98067A   26166.18985271  .00007715  00000+0  14683-3 0  9996
2 25544  51.6338 309.9786 0004835 187.9159 172.1754 15.49238068571444
OSCAR 7 (AO-7)          
1 07530U 74089B   26165.98761479 -.00000032  00000+0  88532-4 0  9999
2 07530 101.9901 179.2113 0012546 134.1981 283.5201 12.53698088360243
PHASE 3B (AO-10)        
1 14129U 83058B   26165.45605944  .00000123  00000+0  00000+0 0  9992
2 14129  25.9101 220.0173 6011772 114.9164 317.3873  2.05868899295432
UOSAT 2 (UO-11)         
1 14781U 84021B   26166.14064493  .00001057  00000+0  11313-3 0  9992
2 14781  97.8057 131.7382 0007445 179.3593 180.7636 14.90778795256822
LUSAT (LO-19)           
1 20442U 90005G   26166.01913242  .00000104  00000+0  53800-4 0  9993
2 20442  98.8851 187.7650 0010996 207.7672 152.2925 14.34122634902088
EYESAT A (AO-27)        
1 22825U 93061C   26166.18185475  .00000084  00000+0  48753-4 0  9990
2 22825  98.6881 233.5961 0009522 104.9010 255.3227 14.30941747706710
ITAMSAT (IO-26)         
1 22826U 93061D   26166.16186547  .00000083  00000+0  48145-4 0  9994
2 22826  98.6828 233.4933 0010092  90.3104 269.9235 14.31368614707028
RADIO ROSTO (RS15)      
1 23439U 94085A   26166.07613198 -.00000050  00000+0 -22573-3 0  9991
2 23439  64.8180 306.6304 0155887   4.2663 355.9551 11.27583507295667
JAS-2 (FO-29)           
1 24278U 96046B   26166.16701573  .00000014  00000+0  47153-4 0  9997
2 24278  98.5240  15.3160 0350880 101.6601 262.4132 13.53274235472893
TECHSAT 1B (GO-32)      
1 25397U 98043D   26165.95709969  .00000038  00000+0  36595-4 0  9996
2 25397  99.0066 158.6595 0000936 168.0137 192.1063 14.24428011451011
PCSAT (NO-44)           
1 26931U 01043C   26165.92426211  .00000090  00000+0  64567-4 0  9996
2 26931  67.0507 250.1247 0006069 264.6225  95.4185 14.31955373290124
SAUDISAT 1C (SO-50)     
1 27607U 02058C   26166.13232462  .00000901  00000+0  12359-3 0  9993
2 27607  64.5510 135.3431 0075311 262.8571  96.3968 14.83043109264155
CUTE-1 (CO-55)          
1 27844U 03031E   26165.99998252  .00000244  00000+0  12459-3 0  9998
2 27844  98.6736 174.5863 0009389 184.3513 175.7586 14.24334508191367
CUBESAT XI-IV (CO-57)   
1 27848U 03031J   26165.98734313  .00000202  00000+0  10800-3 0  9999
2 27848  98.6767 174.2883 0008884 203.7736 156.3033 14.23619747191065
MOZHAETS 4 (RS22)       
1 27939U 03042A   26166.18042478  .00001126  00000+0  18172-3 0  9995
2 27939  98.3462 350.4827 0009969 277.1920 173.3847 14.73465378215250
CUBESAT XI-V            
1 28895U 05043F   26165.88858498  .00001256  00000+0  20533-3 0  9991
2 28895  98.2983 321.4622 0013493 208.2706 151.7770 14.72626136101411
CUTE-1.7+APD II (CO-65) 
1 32785U 08021C   26166.12746172  .00004302  00000+0  27282-3 0  9999
2 32785  97.8270 147.5031 0010039  45.6782 314.5267 15.09436517984882
SEEDS II (CO-66)        
1 32791U 08021J   26165.98115089  .00016500  00000+0  52480-3 0  9997
2 32791  97.7510 163.7734 0001399  12.1045 348.0229 15.32687041986951
YUBILEINY (RS30)        
1 32953U 08025A   26166.16698931  .00000117  00000+0  76774-3 0  9993
2 32953  82.5041 356.6976 0018933 318.4622  41.5018 12.43179662819442
KKS-1 (KISEKI)          
1 33499U 09002H   26166.16514434  .00001159  00000+0  14902-3 0  9992
2 33499  98.1191  88.5753 0006632 303.7143  56.3437 14.83119281935893
SWISSCUBE               
1 35932U 09051B   26165.97930120  .00000873  00000+0  18201-3 0  9990
2 35932  98.4038  73.8291 0005829 210.7697 149.3163 14.62478004888830
BEESAT-1                
1 35933U 09051C   26165.98758793  .00000726  00000+0  15554-3 0  9991
2 35933  98.3967  73.4776 0004107 225.3921 134.6945 14.61717402888860
ITUPSAT1                
1 35935U 09051E   26165.22290826  .00000683  00000+0  15098-3 0  9993
2 35935  98.4052  71.8963 0006164 244.9503 115.1057 14.60436749888304
XIWANG-1 (HOPE-1)       
1 36122U 09072B   26166.19190477 -.00000215  00000+0 -44697-3 0  9993
2 36122 100.4023 120.0557 0006854 236.5445 123.5013 13.16438789792742
O/OREOS (USA 219)       
1 37224U 10062C   26166.18705999  .00002000  00000+0  19439-3 0  9996
2 37224  71.9714  84.8700 0012504  67.4228 292.8264 14.93736891116346
JUGNU                   
1 37839U 11058B   26166.12908786  .00000399  00000+0  69103-4 0  9990
2 37839  19.9618 320.9329 0018627  53.5996 113.0994 14.13776231758737
SRMSAT                  
1 37841U 11058D   26166.09346315  .00000356  00000+0  49299-4 0  9990
2 37841  19.9720  72.1399 0011839 180.5594 207.7984 14.11575160757522
STRAND-1                
1 39090U 13009E   26165.75848833  .00000234  00000+0  92916-4 0  9999
2 39090  98.3921 346.0527 0007612 233.5298 126.5188 14.37162022696718
ZACUBE-1 (TSHEPISOSAT)  
1 39417U 13066B   26166.14099514  .00003020  00000+0  23640-3 0  9996
2 39417  97.8083 128.4670 0040580 254.8393 104.8341 15.01179105680421
GOMX-1                  
1 39430U 13066Q   26166.14316078  .00002237  00000+0  33909-3 0  9996
2 39430  97.6480   6.7352 0130167  84.0340 277.5684 14.69455584669613
