OBJECT_NAME,OBJECT_ID,EPOCH,MEAN_MOTION,ECCENTRICITY,INCLINATION,RA_OF_ASC_NODE,ARG_OF_PERICENTER,MEAN_ANOMALY,EPHEMERIS_TYPE,CLASSIFICATION_TYPE,NORAD_CAT_ID,ELEMENT_SET_NO,REV_AT_EPOCH,BSTAR,MEAN_MOTION_DOT,MEAN_MOTION_DDOT
OSCAR 7 (AO-7),1974-089B,2026-06-14T23:42:09.917856,12.53698088,.0012546,101.9901,179.2113,134.1981,283.5201,0,U,7530,999,36024,.88532E-4,-.32E-6,0
PHASE 3B (AO-10),1983-058B,2026-06-14T10:56:43.535616,2.05868899,.60117725,25.9101,220.0173,114.9164,317.3873,0,U,14129,999,29543,0,.123E-5,0
UOSAT 2 (UO-11),1984-021B,2026-06-15T03:22:31.721952,14.90778795,.0007445,97.8057,131.7382,179.3593,180.7636,0,U,14781,999,25682,.11313E-3,.1057E-4,0
LUSAT (LO-19),1990-005G,2026-06-15T00:27:33.041088,14.34122634,.0010996,98.8851,187.7650,207.7672,152.2925,0,U,20442,999,90208,.538E-4,.104E-5,0
EYESAT A (AO-27),1993-061C,2026-06-15T04:21:52.250400,14.30941747,.0009522,98.6881,233.5961,104.9010,255.3227,0,U,22825,999,70671,.48753E-4,.84E-6,0
ITAMSAT (IO-26),1993-061D,2026-06-15T03:53:05.176608,14.31368614,.0010092,98.6828,233.4933,90.3104,269.9235,0,U,22826,999,70702,.48145E-4,.83E-6,0
RADIO ROSTO (RS15),1994-085A,2026-06-15T01:49:37.803072,11.27583507,.0155887,64.8180,306.6304,4.2663,355.9551,0,U,23439,999,29566,-.22573E-3,-.5E-6,0
JAS-2 (FO-29),1996-046B,2026-06-15T04:00:30.159072,13.53274235,.035088,98.5240,15.3160,101.6601,262.4132,0,U,24278,999,47289,.47153E-4,.14E-6,0
TECHSAT 1B (GO-32),1998-043D,2026-06-14T22:58:13.413216,14.24428011,.0000936,99.0066,158.6595,168.0137,192.1063,0,U,25397,999,45101,.36595E-4,.38E-6,0
ISS (ZARYA),1998-067A,2026-06-15T04:33:23.274144,15.49238068,.0004835,51.6338,309.9786,187.9159,172.1754,0,U,25544,999,57144,.14683E-3,.7715E-4,0
PCSAT (NO-44),2001-043C,2026-06-14T22:10:56.246304,14.31955373,.0006069,67.0507,250.1247,264.6225,95.4185,0,U,26931,999,29012,.64567E-4,.9E-6,0
SAUDISAT 1C (SO-50),2002-058C,2026-06-15T03:10:32.847168,14.83043109,.0075311,64.5510,135.3431,262.8571,96.3968,0,U,27607,999,26415,.12359E-3,.901E-5,0
CUTE-1 (CO-55),2003-031E,2026-06-14T23:59:58.489728,14.24334508,.0009389,98.6736,174.5863,184.3513,175.7586,0,U,27844,999,19136,.12459E-3,.244E-5,0
CUBESAT XI-IV (CO-57),2003-031J,2026-06-14T23:41:46.446432,14.23619747,.0008884,98.6767,174.2883,203.7736,156.3033,0,U,27848,999,19106,.108E-3,.202E-5,0
MOZHAETS 4 (RS22),2003-042A,2026-06-15T04:19:48.700992,14.73465378,.0009969,98.3462,350.4827,277.1920,173.3847,0,U,27939,999,21525,.18172E-3,.1126E-4,0
CUBESAT XI-V,2005-043F,2026-06-14T21:19:33.742272,14.72626136,.0013493,98.2983,321.4622,208.2706,151.7770,0,U,28895,999,10141,.20533E-3,.1256E-4,0
CUTE-1.7+APD II (CO-65),2008-021C,2026-06-15T03:03:32.692608,15.09436517,.0010039,97.8270,147.5031,45.6782,314.5267,0,U,32785,999,98488,.27282E-3,.4302E-4,0
SEEDS II (CO-66),2008-021J,2026-06-14T23:32:51.436896,15.32687041,.0001399,97.7510,163.7734,12.1045,348.0229,0,U,32791,999,98695,.5248E-3,.165E-3,0
YUBILEINY (RS30),2008-025A,2026-06-15T04:00:27.876384,12.43179662,.0018933,82.5041,356.6976,318.4622,41.5018,0,U,32953,999,81944,.76774E-3,.117E-5,0
KKS-1 (KISEKI),2009-002H,2026-06-15T03:57:48.470976,14.83119281,.0006632,98.1191,88.5753,303.7143,56.3437,0,U,33499,999,93589,.14902E-3,.1159E-4,0
SWISSCUBE,2009-051B,2026-06-14T23:30:11.623680,14.62478004,.0005829,98.4038,73.8291,210.7697,149.3163,0,U,35932,999,88883,.18201E-3,.873E-5,0
BEESAT-1,2009-051C,2026-06-14T23:42:07.597152,14.61717402,.0004107,98.3967,73.4776,225.3921,134.6945,0,U,35933,999,88886,.15554E-3,.726E-5,0
ITUPSAT1,2009-051E,2026-06-14T05:20:59.273664,14.60436749,.0006164,98.4052,71.8963,244.9503,115.1057,0,U,35935,999,88830,.15098E-3,.683E-5,0
XIWANG-1 (HOPE-1),2009-072B,2026-06-15T04:36:20.572128,13.16438789,.0006854,100.4023,120.0557,236.5445,123.5013,0,U,36122,999,79274,-.44697E-3,-.215E-5,0
O/OREOS (USA 219),2010-062C,2026-06-15T04:29:21.983136,14.93736891,.0012504,71.9714,84.8700,67.4228,292.8264,0,U,37224,999,11634,.19439E-3,.2E-4,0
JUGNU,2011-058B,2026-06-15T03:05:53.191104,14.13776231,.0018627,19.9618,320.9329,53.5996,113.0994,0,U,37839,999,75873,.69103E-4,.399E-5,0
SRMSAT,2011-058D,2026-06-15T02:14:35.216160,14.11575160,.0011839,19.9720,72.1399,180.5594,207.7984,0,U,37841,999,75752,.49299E-4,.356E-5,0
STRAND-1,2013-009E,2026-06-14T18:12:13.391712,14.37162022,.00076124,98.3921,346.0527,233.5298,126.5188,0,U,39090,999,69671,.92915931E-4,.234E-5,0
ZACUBE-1 (TSHEPISOSAT),2013-066B,2026-06-15T03:23:01.980096,15.01179105,.004058,97.8083,128.4670,254.8393,104.8341,0,U,39417,999,68042,.2364E-3,.302E-4,0
GOMX-1,2013-066Q,2026-06-15T03:26:09.091392,14.69455584,.0130167,97.6480,6.7352,84.0340,277.5684,0,U,39430,999,66961,.33909E-3,.2237E-4,0
